[{"OBJECT_NAME":"STARLINK-3232","OBJECT_ID":"2022-001G","EPOCH":"2026-03-09T11:29:59.321184","MEAN_MOTION":15.08845152,"ECCENTRICITY":0.00010688,"INCLINATION":53.2179,"RA_OF_ASC_NODE":160.0731,"ARG_OF_PERICENTER":80.3687,"MEAN_ANOMALY":279.7426,"EPHEMERIS_TYPE":0,"CLASSIFICATION_TYPE":"U","NORAD_CAT_ID":50809,"ELEMENT_SET_NO":999,"REV_AT_EPOCH":23051,"BSTAR":0.00045475065,"MEAN_MOTION_DOT":6.958e-5,"MEAN_MOTION_DDOT":0},{"OBJECT_NAME":"OBJECT D","OBJECT_ID":"2025-013D","EPOCH":"2026-03-09T22:45:56.369376","MEAN_MOTION":15.10588544,"ECCENTRICITY":0.0008827,"INCLINATION":97.6457,"RA_OF_ASC_NODE":238.3603,"ARG_OF_PERICENTER":18.3993,"MEAN_ANOMALY":341.7554,"EPHEMERIS_TYPE":0,"CLASSIFICATION_TYPE":"U","NORAD_CAT_ID":62732,"ELEMENT_SET_NO":999,"REV_AT_EPOCH":6229,"BSTAR":0.00036300228,"MEAN_MOTION_DOT":5.935e-5,"MEAN_MOTION_DDOT":0}]
